OBJECT_NAME,OBJECT_ID,EPOCH,MEAN_MOTION,ECCENTRICITY,INCLINATION,RA_OF_ASC_NODE,ARG_OF_PERICENTER,MEAN_ANOMALY,EPHEMERIS_TYPE,CLASSIFICATION_TYPE,NORAD_CAT_ID,ELEMENT_SET_NO,REV_AT_EPOCH,BSTAR,MEAN_MOTION_DOT,MEAN_MOTION_DDOT
STARLINK-3277,2021-125AC,2024-12-04T05:06:23.244192,15.08844442,.0001546,53.2179,156.1242,83.3971,276.7197,0,U,50182,999,16712,.1342E-3,.1849E-4,0
STARLINK-3281,2021-125AD,2024-12-04T11:54:27.430848,15.08839430,.0001448,53.2160,155.0080,85.6584,274.4574,0,U,50183,999,16717,.38083E-4,.318E-5,0
STARLINK-3279,2021-125AF,2024-12-03T21:51:52.956576,15.08842828,.0001508,53.2169,157.6763,92.9286,267.1879,0,U,50185,999,16704,.82983E-4,.1033E-4,0
STARLINK-3274,2021-125AG,2024-12-04T12:24:55.725696,15.08840468,.0001656,53.2161,164.9140,88.3531,271.7651,0,U,50186,999,16698,.32408E-4,.228E-5,0
STARLINK-3272,2021-125AH,2024-12-04T14:40:03.636480,15.08834942,.0001463,53.2166,144.4900,96.7522,263.3637,0,U,50187,999,16726,.27793E-4,.154E-5,0
STARLINK-3275,2021-125AJ,2024-12-04T14:07:07.255488,15.32052010,.0003638,53.2166,109.5966,179.4128,180.6879,0,U,50188,999,16782,.52346E-3,.16093E-3,0
STARLINK-3276,2021-125AK,2024-12-04T05:18:23.208480,15.08844956,.0001212,53.2160,156.2518,91.8302,268.2829,0,U,50189,999,16712,-.16536E-3,-.2919E-4,0
STARLINK-3268,2021-125AL,2024-12-04T04:51:50.713056,15.08841607,.0001413,53.2164,146.3219,89.3051,270.8103,0,U,50190,999,16721,.71758E-4,.854E-5,0
STARLINK-3273,2021-125AM,2024-12-04T13:02:01.446720,15.08835261,.0001509,53.2175,164.7977,92.9751,267.1414,0,U,50191,999,16698,.29387E-4,.18E-5,0
STARLINK-3259,2021-125AN,2024-12-04T04:46:32.335968,15.08849797,.0001097,53.2180,146.3393,101.1922,258.9193,0,U,50192,999,16721,-.87531E-5,-.427E-5,0
STARLINK-3261,2021-125AP,2024-12-04T14:34:45.532416,15.08839663,.0001493,53.2167,144.5071,91.7656,268.3507,0,U,50193,999,16732,.23963E-4,.93E-6,0
STARLINK-3269,2021-125AQ,2024-12-04T15:06:06.455232,15.13879468,.000359,53.2125,142.6920,147.7546,212.3669,0,U,50194,999,16735,.10756E-2,.1944E-3,0
STARLINK-3266,2021-125AR,2024-12-04T14:29:27.497472,15.08840121,.0001528,53.2161,144.5209,89.2524,270.8643,0,U,50195,999,16727,-.79767E-5,-.415E-5,0
STARLINK-3267,2021-125AT,2024-12-04T04:35:57.507648,15.08829003,.000165,53.2188,146.3745,89.5512,270.5669,0,U,50197,999,16726,.35499E-4,.277E-5,0
STARLINK-3264,2021-125AU,2024-12-04T10:36:17.901504,15.08833789,.0001336,53.2177,145.2519,92.3380,267.7765,0,U,50198,999,16725,.38798E-4,.33E-5,0
STARLINK-3270,2021-125AV,2024-12-04T14:55:57.332640,15.08837137,.0002097,53.2152,144.4417,97.6784,262.4446,0,U,50199,999,16727,-.23444E-4,-.661E-5,0
STARLINK-3235,2021-125AW,2024-12-04T04:20:03.694848,15.08845779,.0001279,53.2174,146.3849,62.9554,297.1568,0,U,50200,999,16722,.14533E-3,.2026E-4,0
STARLINK-3255,2021-125AX,2024-12-04T04:10:50.001312,15.08836093,.0001581,53.2191,146.4655,96.1269,263.9904,0,U,50201,999,16721,.11061E-3,.1473E-4,0
STARLINK-3256,2021-125AY,2024-12-04T14:50:39.005664,15.08850334,.0001224,53.2157,144.4573,82.9141,277.1991,0,U,50202,999,16727,-.97962E-4,-.1847E-4,0
STARLINK-3257,2021-125AZ,2024-12-04T04:32:02.630976,15.08835573,.0001411,53.2173,146.4727,84.2003,275.9150,0,U,50203,999,16727,.42267E-4,.385E-5,0
STARLINK-3254,2021-125BA,2024-12-04T15:02:37.385376,15.08831175,.0001392,53.2155,144.4317,80.9392,279.1758,0,U,50204,999,16733,-.19231E-3,-.3346E-4,0
STARLINK-3260,2021-125BB,2024-12-04T15:11:54.480480,15.08838341,.0001517,53.2179,114.3929,84.5505,275.5660,0,U,50205,999,16770,-.21927E-4,-.637E-5,0
STARLINK-3258,2021-125BC,2024-12-04T14:52:00.781536,15.08835281,.0001562,53.2160,144.3479,81.9486,278.1683,0,U,50206,999,16520,.60125E-4,.669E-5,0
STARLINK-3262,2021-125BD,2024-12-04T15:11:50.840448,15.08831031,.0001697,53.2161,144.3919,95.3036,264.8150,0,U,50207,999,16527,-.17598E-3,-.3087E-4,0
TURKSAT 5B,2021-126A,2024-12-04T06:59:42.794592,1.00271530,.0003988,0.0678,343.4453,314.9084,282.2351,0,U,50212,999,1068,0,.168E-5,0
INMARSAT 6-F1,2021-128A,2024-12-04T12:50:26.623104,1.00270963,.0000254,0.0148,305.4815,159.9788,244.7543,0,U,50319,999,1064,0,-.15E-5,0
SHIYAN 12 01 (SY-12 01),2021-129A,2024-12-04T18:09:57.472416,1.00096163,.0002555,2.2252,88.0584,246.1946,138.5539,0,U,50321,999,1090,0,-.335E-5,0
SHIYAN 12 02 (SY-12 02),2021-129B,2024-12-04T17:01:39.058176,1.00457546,.000044,2.2253,88.0785,137.2129,126.7728,0,U,50322,999,1090,0,.168E-5,0
ZY-1 02E,2021-131A,2024-12-04T14:30:43.828416,14.35409791,.0000957,98.4964,55.9948,35.2645,324.8604,0,U,50465,999,15414,.18677E-3,.493E-5,0
XW-3 (CAS-9),2021-131B,2024-12-04T13:51:23.157504,14.40316346,.0003762,98.5215,63.8558,351.4195,8.6928,0,U,50466,999,15452,.51868E-3,.16E-4,0
ONEWEB-0389,2021-132A,2024-12-04T15:00:07.924608,13.17650818,.0001842,87.9092,117.3426,106.2504,253.8830,0,U,50469,999,14439,.12319E-3,.61E-6,0
ONEWEB-0390,2021-132B,2024-12-04T15:02:32.167680,13.17649105,.0001377,87.9091,117.3495,110.4992,249.6288,0,U,50470,999,14439,.19299E-3,.88E-6,0
ONEWEB-0391,2021-132C,2024-12-04T15:04:59.135808,13.17650205,.0002242,87.9102,117.3462,121.1819,238.9532,0,U,50471,999,14439,.11747E-3,.58E-6,0
ONEWEB-0392,2021-132D,2024-12-04T10:20:41.082720,13.17650052,.0001943,87.9085,117.3616,109.3735,250.7607,0,U,50472,999,14440,.50036E-4,.32E-6,0
ONEWEB-0393,2021-132E,2024-12-04T15:10:02.974368,13.17649991,.0001699,87.9096,117.3151,102.6689,257.4633,0,U,50473,999,14442,.68733E-4,.4E-6,0
ONEWEB-0394,2021-132F,2024-12-04T14:01:44.568768,13.18691796,.0001812,87.9109,86.7945,102.7510,257.3825,0,U,50474,999,14784,.36289E-3,.156E-5,0
ONEWEB-0395,2021-132G,2024-12-04T10:53:41.490816,13.11417943,.0001574,87.8886,132.6195,107.7894,252.3406,0,U,50475,999,14235,-.11149E-2,-.382E-5,0
ONEWEB-0396,2021-132H,2024-12-04T13:52:38.806752,13.18688285,.0001795,87.9111,86.8008,102.6964,257.4369,0,U,50476,999,14788,.23061E-3,.104E-5,0
ONEWEB-0397,2021-132J,2024-12-04T14:13:05.838816,13.18688955,.0001736,87.9112,86.7992,95.3587,264.7743,0,U,50477,999,14786,-.30867E-2,-.1204E-4,0
ONEWEB-0398,2021-132K,2024-12-04T10:07:16.958784,13.11416004,.0001185,87.8885,132.5985,110.7226,249.4029,0,U,50478,999,14224,.1514E-2,.549E-5,0
ONEWEB-0399,2021-132L,2024-12-04T09:47:43.881792,13.11417188,.0001852,87.8885,132.6211,92.7525,267.3815,0,U,50479,999,14223,-.25936E-3,-.79E-6,0
ONEWEB-0400,2021-132M,2024-12-04T13:43:32.787264,13.18685352,.0001469,87.9106,86.8005,108.9177,251.2114,0,U,50480,999,14785,.22969E-3,.103E-5,0
ONEWEB-0401,2021-132N,2024-12-04T12:55:44.691744,13.18685614,.0001739,87.9106,86.8020,94.3665,265.7666,0,U,50481,999,14785,.15959E-3,.76E-6,0
ONEWEB-0402,2021-132P,2024-12-04T13:54:56.176704,13.18687003,.000193,87.9106,86.7913,83.5077,276.6275,0,U,50482,999,14788,.16889E-3,.8E-6,0
ONEWEB-0403,2021-132Q,2024-12-04T14:29:03.423840,13.18686664,.0001716,87.9108,86.7975,105.9356,254.1965,0,U,50483,999,14784,.23004E-3,.104E-5,0
ONEWEB-0404,2021-132R,2024-12-04T11:10:45.019776,13.11417784,.0001793,87.8897,132.5954,104.0432,256.0895,0,U,50484,999,14233,-.13732E-2,-.474E-5,0
ONEWEB-0405,2021-132S,2024-12-04T13:02:34.043712,13.18688836,.0001851,87.9108,86.7993,93.8026,266.3317,0,U,50485,999,14823,.14116E-4,.18E-6,0
ONEWEB-0406,2021-132T,2024-12-04T12:46:38.196192,13.18685039,.0001899,87.9109,86.8169,123.8960,236.2353,0,U,50486,999,14786,.99856E-4,.52E-6,0
ONEWEB-0407,2021-132U,2024-12-04T14:26:47.686848,13.18685510,.0001813,87.9104,86.7970,98.9452,261.1885,0,U,50487,999,14781,.26882E-3,.119E-5,0
ONEWEB-0409,2021-132V,2024-12-04T11:08:17.048544,13.11414714,.0001563,87.8886,132.5776,108.5343,251.5954,0,U,50488,999,14222,-.13735E-2,-.474E-5,0
ONEWEB-0412,2021-132W,2024-12-04T14:10:51.700224,13.18686159,.0001829,87.9110,86.8071,89.7010,270.4332,0,U,50489,999,14790,.31534E-3,.137E-5,0
ONEWEB-0413,2021-132X,2024-12-04T14:17:41.040096,13.18686548,.0001688,87.9107,86.8184,89.7033,270.4292,0,U,50490,999,14784,.22423E-3,.101E-5,0
ONEWEB-0414,2021-132Y,2024-12-04T13:57:12.657600,13.18686229,.0001875,87.9105,86.7930,97.0269,263.1076,0,U,50491,999,14787,.24897E-3,.111E-5,0
ONEWEB-0417,2021-132Z,2024-12-04T14:08:35.793888,13.18687647,.0001746,87.9115,86.8062,108.5156,251.6166,0,U,50492,999,14785,.3192E-3,.139E-5,0
ONEWEB-0418,2021-132AA,2024-12-04T14:22:03.481824,13.18687188,.0001978,87.9108,86.8008,113.5968,246.5372,0,U,50493,999,14791,.71159E-4,.41E-6,0
ONEWEB-0419,2021-132AB,2024-12-04T12:58:00.463296,13.18685125,.0001575,87.9105,86.8235,116.4274,243.7020,0,U,50494,999,14782,.15512E-3,.74E-6,0
ONEWEB-0420,2021-132AC,2024-12-04T13:59:28.086144,13.18688740,.0001461,87.9106,86.8239,92.9362,267.1937,0,U,50495,999,14782,.24532E-3,.11E-5,0
ONEWEB-0421,2021-132AD,2024-12-04T13:50:21.931872,13.18688745,.000189,87.9113,86.8039,96.2720,263.8627,0,U,50496,999,14786,.23091E-3,.104E-5,0
ONEWEB-0424,2021-132AE,2024-12-04T12:51:11.683296,13.18685322,.0001423,87.9109,86.8100,120.3656,239.7617,0,U,50497,999,14788,.64156E-4,.38E-6,0
ONEWEB-0426,2021-132AF,2024-12-04T13:45:49.220640,13.18687520,.0002271,87.9104,86.8129,106.3327,253.8054,0,U,50498,999,14783,.10473E-3,.54E-6,0
ONEWEB-0427,2021-132AG,2024-12-04T12:48:54.692640,13.18685486,.0001791,87.9109,86.8005,110.0788,250.0537,0,U,50499,999,14785,.2065E-3,.94E-6,0
ONEWEB-0429,2021-132AH,2024-12-04T14:19:57.751680,13.18685151,.0001512,87.9110,86.8043,97.0016,263.1288,0,U,50500,999,14783,.20166E-3,.92E-6,0
ONEWEB-0430,2021-132AJ,2024-12-04T14:04:02.163360,13.18688929,.000122,87.9110,86.8055,110.0297,250.0966,0,U,50501,999,14787,.4974E-3,.209E-5,0
ONEWEB-0432,2021-132AK,2024-12-04T13:00:17.272512,13.18688905,.0001978,87.9107,86.8051,135.4893,224.6398,0,U,50502,999,14782,.12475E-3,.62E-6,0
ONEWEB-0440,2021-132AL,2024-12-04T14:31:21.199008,13.18687999,.0001768,87.9109,86.7864,88.1781,271.9554,0,U,50503,999,14782,.16058E-3,.76E-6,0
ONEWEB-0450,2021-132AM,2024-12-04T14:22:23.944800,13.18683440,.000126,87.9110,86.8161,95.4173,264.7103,0,U,50504,999,14785,-.822E-3,-.311E-5,0
